{
  "type": "FeatureCollection",
  "features": [
    {
      "type": "Feature",
      "properties": {
        "norad_id": 36828,
        "name": "BEIDOU-2 IGSO-1 (C06)",
        "group": "beidou",
        "lat": 11.985746852392962,
        "lon": 173.34654122002146,
        "alt_km": 35986.48937499934,
        "timestamp": "2025-12-21T22:41:41.725146+00:00",
        "meta_object_name": "BEIDOU-2 IGSO-1 (C06)",
        "meta_object_id": "2010-036A",
        "meta_epoch": "2025-12-20T21:47:26.739168",
        "meta_mean_motion": 1.00282395,
        "meta_eccentricity": 0.0051798,
        "meta_inclination": 54.2882,
        "meta_ra_of_asc_node": 164.5739,
        "meta_arg_of_pericenter": 215.2932,
        "meta_mean_anomaly": 144.6604,
        "meta_ephemeris_type": 0,
        "meta_classification_type": "U",
        "meta_norad_cat_id": 36828,
        "meta_element_set_no": 999,
        "meta_rev_at_epoch": 5631,
        "meta_bstar": 0,
        "meta_mean_motion_dot": -5.5e-07,
        "meta_mean_motion_ddot": 0,
        "tle_line1": "1 36828U 10036A   25354.90794837 -.00000055  00000+0  00000+0 0  9992",
        "tle_line2": "2 36828  54.2882 164.5739 0051798 215.2932 144.6604  1.00282395 56317"
      },
      "geometry": {
        "type": "Point",
        "coordinates": [
          173.34654122002146,
          11.985746852392962
        ]
      }
    },
    {
      "type": "Feature",
      "properties": {
        "norad_id": 37210,
        "name": "BEIDOU-2 G4 (C04)",
        "group": "beidou",
        "lat": 1.0109936346906065,
        "lon": -128.77311257881104,
        "alt_km": 35748.40373640951,
        "timestamp": "2025-12-21T22:41:41.725168+00:00",
        "meta_object_name": "BEIDOU-2 G4 (C04)",
        "meta_object_id": "2010-057A",
        "meta_epoch": "2025-12-21T13:57:28.384992",
        "meta_mean_motion": 1.00271972,
        "meta_eccentricity": 0.00104218,
        "meta_inclination": 3.2053,
        "meta_ra_of_asc_node": 69.9056,
        "meta_arg_of_pericenter": 193.0975,
        "meta_mean_anomaly": 196.8487,
        "meta_ephemeris_type": 0,
        "meta_classification_type": "U",
        "meta_norad_cat_id": 37210,
        "meta_element_set_no": 999,
        "meta_rev_at_epoch": 5551,
        "meta_bstar": 0,
        "meta_mean_motion_dot": -9.1e-07,
        "meta_mean_motion_ddot": 0,
        "tle_line1": "1 37210U 10057A   25355.58157853 -.00000091  00000+0  00000+0 0  9997",
        "tle_line2": "2 37210   3.2053  69.9056 0010421 193.0975 196.8487  1.00271972 55513"
      },
      "geometry": {
        "type": "Point",
        "coordinates": [
          -128.77311257881104,
          1.0109936346906065
        ]
      }
    },
    {
      "type": "Feature",
      "properties": {
        "norad_id": 37256,
        "name": "BEIDOU-2 IGSO-2 (C07)",
        "group": "beidou",
        "lat": -47.71687173212721,
        "lon": 177.31155298851615,
        "alt_km": 35654.65099147178,
        "timestamp": "2025-12-21T22:41:41.725183+00:00",
        "meta_object_name": "BEIDOU-2 IGSO-2 (C07)",
        "meta_object_id": "2010-068A",
        "meta_epoch": "2025-12-21T13:27:35.185824",
        "meta_mean_motion": 1.00283695,
        "meta_eccentricity": 0.00485105,
        "meta_inclination": 47.8698,
        "meta_ra_of_asc_node": 274.0408,
        "meta_arg_of_pericenter": 216.3833,
        "meta_mean_anomaly": 269.8083,
        "meta_ephemeris_type": 0,
        "meta_classification_type": "U",
        "meta_norad_cat_id": 37256,
        "meta_element_set_no": 999,
        "meta_rev_at_epoch": 5501,
        "meta_bstar": 0,
        "meta_mean_motion_dot": -1.86e-06,
        "meta_mean_motion_ddot": 0,
        "tle_line1": "1 37256U 10068A   25355.56082391 -.00000186  00000+0  00000+0 0  9996",
        "tle_line2": "2 37256  47.8698 274.0408 0048510 216.3833 269.8083  1.00283695 55017"
      },
      "geometry": {
        "type": "Point",
        "coordinates": [
          177.31155298851615,
          -47.71687173212721
        ]
      }
    },
    {
      "type": "Feature",
      "properties": {
        "norad_id": 37384,
        "name": "BEIDOU-2 IGSO-3 (C08)",
        "group": "beidou",
        "lat": 37.66310504567272,
        "lon": -162.19245361198128,
        "alt_km": 35690.14065625012,
        "timestamp": "2025-12-21T22:41:41.725195+00:00",
        "meta_object_name": "BEIDOU-2 IGSO-3 (C08)",
        "meta_object_id": "2011-013A",
        "meta_epoch": "2025-12-21T13:47:18.522816",
        "meta_mean_motion": 1.00268792,
        "meta_eccentricity": 0.00353792,
        "meta_inclination": 62.1546,
        "meta_ra_of_asc_node": 41.8324,
        "meta_arg_of_pericenter": 187.6182,
        "meta_mean_anomaly": 175.1134,
        "meta_ephemeris_type": 0,
        "meta_classification_type": "U",
        "meta_norad_cat_id": 37384,
        "meta_element_set_no": 999,
        "meta_rev_at_epoch": 5388,
        "meta_bstar": 0,
        "meta_mean_motion_dot": -1.61e-06,
        "meta_mean_motion_ddot": 0,
        "tle_line1": "1 37384U 11013A   25355.57451994 -.00000161  00000+0  00000+0 0  9992",
        "tle_line2": "2 37384  62.1546  41.8324 0035379 187.6182 175.1134  1.00268792 53884"
      },
      "geometry": {
        "type": "Point",
        "coordinates": [
          -162.19245361198128,
          37.66310504567272
        ]
      }
    },
    {
      "type": "Feature",
      "properties": {
        "norad_id": 37763,
        "name": "BEIDOU-2 IGSO-4 (C09)",
        "group": "beidou",
        "lat": -0.06642689774662298,
        "lon": 167.204926613226,
        "alt_km": 36181.03055096395,
        "timestamp": "2025-12-21T22:41:41.725208+00:00",
        "meta_object_name": "BEIDOU-2 IGSO-4 (C09)",
        "meta_object_id": "2011-038A",
        "meta_epoch": "2025-12-21T10:06:26.864064",
        "meta_mean_motion": 1.00280083,
        "meta_eccentricity": 0.01491557,
        "meta_inclination": 54.5854,
        "meta_ra_of_asc_node": 167.2693,
        "meta_arg_of_pericenter": 230.0944,
        "meta_mean_anomaly": 299.1265,
        "meta_ephemeris_type": 0,
        "meta_classification_type": "U",
        "meta_norad_cat_id": 37763,
        "meta_element_set_no": 999,
        "meta_rev_at_epoch": 5286,
        "meta_bstar": 0,
        "meta_mean_motion_dot": 5.9e-07,
        "meta_mean_motion_ddot": 0,
        "tle_line1": "1 37763U 11038A   25355.42114426  .00000059  00000+0  00000+0 0  9995",
        "tle_line2": "2 37763  54.5854 167.2693 0149155 230.0944 299.1265  1.00280083 52867"
      },
      "geometry": {
        "type": "Point",
        "coordinates": [
          167.204926613226,
          -0.06642689774662298
        ]
      }
    },
    {
      "type": "Feature",
      "properties": {
        "norad_id": 37948,
        "name": "BEIDOU-2 IGSO-5 (C10)",
        "group": "beidou",
        "lat": -44.8525370818786,
        "lon": 157.1568684618883,
        "alt_km": 35382.32566735389,
        "timestamp": "2025-12-21T22:41:41.725220+00:00",
        "meta_object_name": "BEIDOU-2 IGSO-5 (C10)",
        "meta_object_id": "2011-073A",
        "meta_epoch": "2025-12-20T17:45:23.966208",
        "meta_mean_motion": 1.00289634,
        "meta_eccentricity": 0.01098505,
        "meta_inclination": 48.0053,
        "meta_ra_of_asc_node": 273.7608,
        "meta_arg_of_pericenter": 222.3057,
        "meta_mean_anomaly": 313.2909,
        "meta_ephemeris_type": 0,
        "meta_classification_type": "U",
        "meta_norad_cat_id": 37948,
        "meta_element_set_no": 999,
        "meta_rev_at_epoch": 5134,
        "meta_bstar": 0,
        "meta_mean_motion_dot": -1.51e-06,
        "meta_mean_motion_ddot": 0,
        "tle_line1": "1 37948U 11073A   25354.73986072 -.00000151  00000+0  00000+0 0  9990",
        "tle_line2": "2 37948  48.0053 273.7608 0109850 222.3057 313.2909  1.00289634 51343"
      },
      "geometry": {
        "type": "Point",
        "coordinates": [
          157.1568684618883,
          -44.8525370818786
        ]
      }
    },
    {
      "type": "Feature",
      "properties": {
        "norad_id": 38091,
        "name": "BEIDOU-2 G5 (C05)",
        "group": "beidou",
        "lat": 2.712427103065011,
        "lon": 129.87650304150932,
        "alt_km": 35840.70413030331,
        "timestamp": "2025-12-21T22:41:41.725231+00:00",
        "meta_object_name": "BEIDOU-2 G5 (C05)",
        "meta_object_id": "2012-008A",
        "meta_epoch": "2025-12-19T16:03:31.750272",
        "meta_mean_motion": 1.00268606,
        "meta_eccentricity": 0.0012969,
        "meta_inclination": 3.1258,
        "meta_ra_of_asc_node": 70.6861,
        "meta_arg_of_pericenter": 231.3522,
        "meta_mean_anomaly": 86.1393,
        "meta_ephemeris_type": 0,
        "meta_classification_type": "U",
        "meta_norad_cat_id": 38091,
        "meta_element_set_no": 999,
        "meta_rev_at_epoch": 5056,
        "meta_bstar": 0,
        "meta_mean_motion_dot": 7.9e-07,
        "meta_mean_motion_ddot": 0,
        "tle_line1": "1 38091U 12008A   25353.66911748  .00000079  00000+0  00000+0 0  9996",
        "tle_line2": "2 38091   3.1258  70.6861 0012969 231.3522  86.1393  1.00268606 50560"
      },
      "geometry": {
        "type": "Point",
        "coordinates": [
          129.87650304150932,
          2.712427103065011
        ]
      }
    }
  ]
}